HORYU-4                 
1 41340U 16012D   20232.85163969  .00000350  00000-0  19714-4 0  9992
2 41340  31.0051 288.0369 0013930  57.7470 302.4514 15.01537192247417
E-ST@R-II               
1 41459U 16025D   20233.55745442  .00000542  00000-0  31455-4 0  9996
2 41459  98.1109 346.9100 0164436 356.5977   3.4108 15.06583960237092
AAUSAT 4                
1 41460U 16025E   20233.26355984  .00000979  00000-0  51609-4 0  9991
2 41460  98.1071 349.1583 0152776 345.4159  14.2696 15.08951457237268
BEESAT-4                
1 41619U 16040W   20232.91431057  .00001039  00000-0  45539-4 0  9994
2 41619  97.3147 290.9344 0009822 323.2405  36.8158 15.24154540219065
CANX-7                  
1 41788U 16059F   20233.24371483  .00005744  00000-0  77505-3 0  9998
2 41788  98.2577 322.7402 0032008 104.7668 255.7124 14.79166133209247
RAVAN                   
1 41849U 16067B   20233.04180013  .00000278  00000-0  28321-4 0  9990
2 41849  97.9372 343.9959 0008400  38.7808 321.4015 14.98600150206146
CELTEE 1                
1 41850U 16067C   20233.29632970 -.00000019  00000-0  36799-5 0  9996
2 41850  97.9316 341.7922 0009407  42.0106 318.1835 14.97207434206059
OPTICUBE 04             
1 41851U 16067D   20233.10420976  .00000180  00000-0  20960-4 0  9998
2 41851  97.9304 341.1812 0009612  45.9650 314.2361 14.96940020206003
AEROCUBE 8D             
1 41852U 16067E   20233.05383268  .00000748  00000-0  70322-4 0  9992
2 41852  97.9318 340.9698 0010678  47.1922 313.0195 14.96942141205971
AEROCUBE 8C             
1 41853U 16067F   20232.88633949 -.00000260  00000-0 -17296-4 0  9999
2 41853  97.9310 340.6990 0010849  45.9186 314.2926 14.96904240205944
PROMETHEUS 2-1          
1 41854U 16067G   20232.84204981  .00000530  00000-0  51008-4 0  9993
2 41854  97.9317 341.0230 0010996  47.1091 313.1052 14.97239438205956
PROMETHEUS 2-3          
1 41855U 16067H   20233.37672661  .00000584  00000-0  55689-4 0  9995
2 41855  97.9320 341.6015 0011164  45.9107 314.3031 14.97249084206038
INS-1B                  
1 41954U 17008G   20233.13179233  .00001054  00000-0  45139-4 0  9994
2 41954  97.3497 296.3806 0010680  79.4597 280.7843 15.24914668195074
BGUSAT                  
1 41999U 17008BD  20232.74940061  .00001851  00000-0  70969-4 0  9998
2 41999  97.3619 300.5114 0009638  88.0480 272.1863 15.27727608194612
DIDO-2                  
1 42000U 17008BE  20233.43637362  .00000742  00000-0  32941-4 0  9992
2 42000  97.3505 297.1614 0010137  94.5029 265.7367 15.24570939194519
PEASSS                  
1 42015U 17008BV  20232.90637132  .00000942  00000-0  39715-4 0  9992
2 42015  97.3532 298.3724 0008034  98.2225 261.9925 15.25734813195021
AL-FARABI 1             
1 42016U 17008BW  20233.08853202  .00001219  00000-0  49270-4 0  9996
2 42016  97.3563 299.7032 0007881  97.1331 263.0804 15.26611352195233
NAYIF-1 (EO-88)         
1 42017U 17008BX  20233.13107406  .00001209  00000-0  48823-4 0  9993
2 42017  97.3557 299.7554 0007942  96.3569 263.8574 15.26653283195262
UCLSAT                  
1 42765U 17036A   20233.38913678  .00000936  00000-0  41863-4 0  9990
2 42765  97.2958 285.8993 0012010 153.1700 207.0161 15.23647190175728
LITUANICASAT-2          
1 42768U 17036D   20232.88207623  .00001650  00000-0  70218-4 0  9993
2 42768  97.3016 285.4817 0015594 146.8511 213.3707 15.24277584175506
AALTO-1                 
1 42775U 17036L   20232.83597186  .00000615  00000-0  29908-4 0  9992
2 42775  97.2932 282.9975 0014637 150.6829 209.5231 15.21922221175319
URSA MAIOR              
1 42776U 17036M   20233.08048391  .00000677  00000-0  32450-4 0  9994
2 42776  97.2944 283.5469 0014475 149.5011 210.7070 15.22112711175364
COMPASS 2               
1 42777U 17036N   20233.30528051  .00001326  00000-0  57348-4 0  9991
2 42777  97.3004 286.2880 0013204 145.6681 214.5413 15.24091451175529
DIAMOND RED             
1 42783U 17036U   20233.41299920  .00000796  00000-0  36767-4 0  9992
2 42783  97.2958 285.1238 0012665 155.7144 204.4693 15.22939342175485
PEGASUS                 
1 42784U 17036V   20232.90205035  .00000894  00000-0  40470-4 0  9995
2 42784  97.2963 285.0894 0012502 156.2193 203.9625 15.23330607175433
DIAMOND GREEN           
1 42785U 17036W   20233.41178026  .00000685  00000-0  32052-4 0  9997
2 42785  97.2960 285.1602 0012551 156.2987 203.8830 15.22937645175479
DIAMOND BLUE            
1 42786U 17036X   20232.88535523  .00000773  00000-0  35802-4 0  9991
2 42786  97.2959 284.6435 0012333 158.1152 202.0614 15.22938344175477
NUDTSAT                 
1 42787U 17036Y   20232.96903514  .00001484  00000-0  62759-4 0  9991
2 42787  97.3009 286.7001 0010863 149.9105 210.2759 15.24699457175370
SUCHAI                  
1 42788U 17036Z   20232.83730359  .00001077  00000-0  47407-4 0  9994
2 42788  97.2972 285.6746 0012088 154.3399 205.8440 15.23902282175536
SKCUBE                  
1 42789U 17036AA  20232.89013875  .00000993  00000-0  44144-4 0  9999
2 42789  97.2965 285.5587 0011983 154.4957 205.6874 15.23735009175456
VZLUSAT-1               
1 42790U 17036AB  20232.89301951  .00001357  00000-0  57642-4 0  9998
2 42790  97.2991 286.6200 0011569 151.7335 208.4533 15.24681446175517
ROBUSTA-1B              
1 42792U 17036AD  20232.90163974  .00001066  00000-0  46903-4 0  9998
2 42792  97.2968 285.8413 0011548 154.4376 205.7435 15.23930669175482
CICERO 6                
1 42793U 17036AE  20232.78525938  .00000687  00000-0  31869-4 0  9990
2 42793  97.2943 285.0517 0010778 157.0042 203.1680 15.23235341175508
D-SAT                   
1 42794U 17036AF  20232.84959918  .00000206  00000-0  22966-4 0  9992
2 42794  97.4900 262.3560 0126901 152.7721 208.0228 14.91305129172147
CORVUS BC2              
1 42846U 17042X   20232.74597998  .00000262  00000-0  30998-4 0  9998
2 42846  97.5141 113.4225 0011133  69.8756 290.3661 14.92126801168849
CORVUS BC1              
1 42847U 17042Y   20232.93853993  .00000158  00000-0  20715-4 0  9990
2 42847  97.5143 113.7873 0010776  68.7092 291.5277 14.92228509168874
MIRATA                  
1 43015U 17073C   20232.69860978  .00000453  00000-0  40613-4 0  9993
2 43015  97.7145 142.5086 0252199 201.9696 157.0554 14.79748735148572
MAKERSAT 0              
1 43016U 17073D   20232.74672483  .00000293  00000-0  28351-4 0  9999
2 43016  97.7181 142.7224 0255121 203.0299 155.9313 14.79287530148558
DELLINGR (RBLE)         
1 43021U 98067NJ  20233.40580874  .00010818  00000-0  84329-4 0  9994
2 43021  51.6353 312.6337 0001722 337.1905  22.9016 15.72317050156924
AEROCUBE 7B (OCSD B)    
1 43042U 17071F   20232.93418304  .00002987  00000-0  73528-4 0  9995
2 43042  51.6376 114.9759 0003716 280.0256  80.0311 15.43998708152183
AEROCUBE 7C (OCSD C)    
1 43043U 17071G   20233.06807398  .00003034  00000-0  74617-4 0  9990
2 43043  51.6377 114.3852 0003951 285.7333  74.3217 15.43973305152178
CHEFSAT                 
1 43044U 17071H   20232.91538665  .00006390  00000-0  12317-3 0  9998
2 43044  51.6375  97.9182 0003535 292.6325  67.4289 15.49206217152387
ASGARDIA 1              
1 43049U 17071N   20233.38388810  .00002836  00000-0  70276-4 0  9990
2 43049  51.6388 112.0755 0001788 310.8977  49.1854 15.43994480152223
ISARA                   
1 43050U 17071P   20233.07042842  .00005400  00000-0  10952-3 0  9994
2 43050  51.6355 100.3151 0001605 312.0190  48.0661 15.48068343152351
PROPCUBE 2 (FAUNA)      
1 43052U 17071R   20232.89777201  .00002973  00000-0  72092-4 0  9995
2 43052  51.6382 112.5959 0001703 306.1735  53.9093 15.44475898152179
CORVUS BC3              
1 43118U 18004H   20233.07509799  .00000598  00000-0  28085-4 0  9995
2 43118  97.4399 302.8181 0010241 179.9765 180.1474 15.23446736144684
MICROMAS-2A             
1 43131U 18004W   20233.27951676  .00001469  00000-0  60909-4 0  9996
2 43131  97.4452 304.9849 0009201 176.1132 184.0179 15.25469195144821
SPACEBEE-4              
1 43139U 18004AE  20232.86460605  .00002227  00000-0  87198-4 0  9997
2 43139  97.4492 305.9118 0008600 176.6819 183.4478 15.26841867144839
SPACEBEE-3              
1 43140U 18004AF  20233.09793686  .00002891  00000-0  10916-3 0  9993
2 43140  97.4509 306.9348 0008403 173.6722 186.4625 15.27808486144914
SPACEBEE-2              
1 43141U 18004AG  20232.86792849  .00003033  00000-0  11327-3 0  9994
2 43141  97.4524 307.0054 0008395 173.5622 186.5727 15.28134509144896
SPACEBEE-1              
1 43142U 18004AH  20233.14774277  .00003384  00000-0  12461-3 0  9991
2 43142  97.4528 307.5851 0008396 172.2800 187.8571 15.28519676144945
CICERO 7                
1 43143U 18004AJ  20233.08259462  .00001309  00000-0  54561-4 0  9992
2 43143  97.4430 304.9563 0007168 183.6625 176.4562 15.25491379144812
GOMX-4B                 
1 43196U 18015E   20232.89726189  .00000459  00000-0  21699-4 0  9996
2 43196  97.4461   0.9779 0017363 239.0856 120.8675 15.24302349141560
GOMX-4A                 
1 43197U 18015F   20233.49981179  .00000495  00000-0  22983-4 0  9993
2 43197  97.4447   1.6869 0017615 238.0753 186.3893 15.24583537141679
UBAKUSAT                
1 43467U 98067NQ  20233.41677906  .00028802  00000-0  16275-3 0  9998
2 43467  51.6351 311.7878 0002579 346.7749  13.3184 15.78880335130209
CUBERRT                 
1 43546U 98067NU  20232.46333178  .00012191  00000-0  81269-4 0  9990
2 43546  51.6346 317.4602 0003346 342.8680  17.2207 15.75855512120173
TEMPEST-D               
1 43547U 98067NV  20233.35106173  .00005484  00000-0  64167-4 0  9998
2 43547  51.6376 349.1039 0004329 302.6811  57.3766 15.63343885119518
RAINCUBE                
1 43548U 98067NW  20233.31299005  .00030776  00000-0  18187-3 0  9994
2 43548  51.6314 320.8270 0005090 345.3498  14.7354 15.77828398120339
HALOSAT                 
1 43549U 98067NX  20232.53101233  .00032681  00000-0  20361-3 0  9997
2 43549  51.6344 326.2201 0004704 348.5303  11.5589 15.76601145119755
